TJS-12                  
1 62374U 24246A   26160.58183351 -.00000214  00000+0  00000+0 0  9995
2 62374   0.6881 298.3648 0002163  85.5253 230.0900  1.00271967  5481
NUVIEW ALPHA            
1 62455U 24252B   26160.43769603 -.00000198  00000+0  00000+0 0  9997
2 62455   0.0584  35.8996 0000870  25.1250 271.2858  1.00271662  3743
AGILA                   
1 62456U 24252C   26160.54009295 -.00000164  00000+0  00000+0 0  9997
2 62456   0.0565 129.7637 0000848 334.5229 140.2133  1.00271416  5083
NUVIEW BRAVO            
1 62457U 24252D   26160.32538733 -.00000198  00000+0  00000+0 0  9995
2 62457   0.0715 143.3248 0001716 339.0549 169.3540  1.00270977  3714
THURAYA-4               
1 62483U 25001A   26160.49319900  .00000156  00000+0  00000+0 0  9991
2 62483   0.0220  60.1861 0000070 225.0723 194.4720  1.00272441  4102
SHIJIAN-25 (SJ-25)      
1 62485U 25002A   26160.75069442 -.00000334  00000+0  00000+0 0  9995
2 62485   5.0946  61.2054 0052086 173.0142  61.4939  1.00272159  5282
TJS-14                  
1 62804U 25017A   26160.63067587  .00000132  00000+0  00000+0 0  9996
2 62804   0.8008 295.0529 0000775 283.1458 285.2073  1.00271524  5194
SPAINSAT NG I           
1 62852U 25021A   26159.91985947  .00000168  00000+0  00000+0 0  9991
2 62852   0.0139 334.5310 0000343 203.9804  78.9580  1.00270703  3902
QZS-6 (MICHIBIKI-6)     
1 62876U 25023A   26160.50238571 -.00000217  00000+0  00000+0 0  9996
2 62876   0.0334  56.4528 0001906  29.6770  83.1155  1.00273308  4874
ZHONGXING-10R           
1 63075U 25036A   26160.50637238 -.00000335  00000+0  00000+0 0  9996
2 63075   0.0411 250.0463 0003331 254.0432  46.6097  1.00268977  4881
TJS-15                  
1 63157U 25045A   26160.71362426 -.00000248  00000+0  00000+0 0  9997
2 63157   0.2818  85.3656 0004854 298.4036 225.5785  1.00274743  4689
TIANLIAN 2-04           
1 63361U 25062A   26159.78731568 -.00000120  00000+0  00000+0 0  9994
2 63361   4.3975 274.5597 0031487  10.5183 335.5801  1.00270193  4517
TJS-16                  
1 63397U 25064A   26160.65884535 -.00000088  00000+0  00000+0 0  9999
2 63397   1.0777  81.4975 0003519 291.2674 283.0571  1.00271840  4312
TJS-17                  
1 63524U 25073A   26160.65962536 -.00000052  00000+0  00000+0 0  9990
2 63524   1.0435  82.7569 0002270 298.7781 278.4847  1.00272079  4210
TIANLIAN 2-05           
1 63662U 25084A   26160.63110920  .00000141  00000+0  00000+0 0  9993
2 63662   4.4716 279.9203 0003344 146.0128  79.6691  1.00270961  4306
TJS-19                  
1 63924U 25097A   26160.72632251 -.00000262  00000+0  00000+0 0  9999
2 63924   3.2998 317.3056 0002139 237.1536 106.3772  1.00268609  4062
CHINASAT 3B             
1 64062U 25106A   26159.61364161 -.00000028  00000+0  00000+0 0  9992
2 64062   0.0397 142.9884 0002858 332.3609 169.8987  1.00271887  3975
SXM-10                  
1 64290U 25122A   26160.46784983  .00000000  00000+0  00000+0 0  9995
2 64290   0.0176  17.8116 0001740 350.4672 301.8160  1.00269911  3607
COSMOS 2589             
1 64467U 25131A   26160.75508544 -.00000274  00000+0  00000+0 0  9994
2 64467   0.0483  76.4674 0001216  75.0725 116.3977  1.00271139  3487
CHINASAT 9C             
1 64470U 25132A   26160.50273237 -.00000230  00000+0  00000+0 0  9992
2 64470   0.0236 263.4031 0002749 174.8853  92.7909  1.00271817  4075
MTG-S1                  
1 64723U 25143A   26160.34116074 -.00000015  00000+0  00000+0 0  9993
2 64723   0.6103 337.1481 0001016  26.2649  13.6462  1.00271609  3346
DROR 1                  
1 64784U 25148A   26160.34107407 -.00000017  00000+0  00000+0 0  9997
2 64784   0.0117  17.2717 0002788  13.1552 346.0708  1.00271646  3218
SHIYAN-29               
1 65486U 25196A   26160.07536391 -.00000259  00000+0  00000+0 0  9996
2 65486  28.8121  18.6391 0010972 171.7452 188.2752  1.00256520  2799
NUSANTARA LIMA (NUSANT*)
1 65588U 25205A   26159.79387286 -.00000341  00000+0  00000+0 0  9996
2 65588   0.0451 143.7047 0000437 352.7801 159.3428  1.00270756  2631
TJS-20                  
1 66142U 25238A   26160.49683902  .00000038  00000+0  00000+0 0  9994
2 66142   5.4878 299.5799 0004683 158.2357  41.3087  1.00272963  2257
CMS-03 (GSAT-7R)        
1 66311U 25249B   26160.49909235 -.00000060  00000+0  00000+0 0  9990
2 66311   0.0221 263.2751 0001732 172.5836  75.6859  1.00271197  2274
VIASAT-3 F2             
1 66454U 25261A   26160.46877215 -.00000216  00000+0  00000+0 0  9994
2 66454   0.0309 150.8304 0000089 333.9947 222.7865  1.00272085  2712
SHIJIAN-28 (SJ-28)      
1 66549U 25277A   26160.29370163 -.00000344  00000+0  00000+0 0  9999
2 66549   4.5599 272.2602 0000560 352.2237 215.7848  1.00267481  2073
TJS-22                  
1 66990U 25290A   26159.89767940  .00000009  00000+0  00000+0 0  9998
2 66990   1.5481 286.4716 0001961 332.3370  28.0822  1.00272251  1949
TJS-23                  
1 67226U 25306A   26159.62535186  .00000029  00000+0  00000+0 0  9997
2 67226   5.6069 297.5352 0005162 166.0260 194.0597  1.00273291  1808
FENGYUN 4C              
1 67246U 25312A   26160.58211061 -.00000306  00000+0  00000+0 0  9995
2 67246   0.0286 162.3541 0000522  17.4898  60.6752  1.00271379  1705
SHIJIAN-29A (SJ-29A)    
1 67302U 25315A   26160.74819027 -.00000050  00000+0  00000+0 0  9991
2 67302   3.3777  95.2963 0003215  22.7089 122.6970  1.00269736  1541
