OBJECT_NAME,OBJECT_ID,EPOCH,MEAN_MOTION,ECCENTRICITY,INCLINATION,RA_OF_ASC_NODE,ARG_OF_PERICENTER,MEAN_ANOMALY,EPHEMERIS_TYPE,CLASSIFICATION_TYPE,NORAD_CAT_ID,ELEMENT_SET_NO,REV_AT_EPOCH,BSTAR,MEAN_MOTION_DOT,MEAN_MOTION_DDOT
TJS-12,2024-246A,2026-06-09T13:57:50.415264,1.00271967,.00021633,0.6881,298.3648,85.5253,230.0900,0,U,62374,999,548,0,-.214E-5,0
NUVIEW ALPHA,2024-252B,2026-06-09T10:30:16.936992,1.00271662,.00008706,0.0584,35.8996,25.1250,271.2858,0,U,62455,999,374,0,-.198E-5,0
AGILA,2024-252C,2026-06-09T12:57:44.030880,1.00271416,.00008485,0.0565,129.7637,334.5229,140.2133,0,U,62456,999,508,0,-.164E-5,0
NUVIEW BRAVO,2024-252D,2026-06-09T07:48:33.465312,1.00270977,.00017168,0.0715,143.3248,339.0549,169.3540,0,U,62457,999,371,0,-.198E-5,0
THURAYA-4,2025-001A,2026-06-09T11:50:12.393600,1.00272441,.00000709,0.0220,60.1861,225.0723,194.4720,0,U,62483,999,410,0,.156E-5,0
SHIJIAN-25 (SJ-25),2025-002A,2026-06-09T18:00:59.997888,1.00272159,.0052086,5.0946,61.2054,173.0142,61.4939,0,U,62485,999,528,0,-.334E-5,0
TJS-14,2025-017A,2026-06-09T15:08:10.395168,1.00271524,.00007757,0.8008,295.0529,283.1458,285.2073,0,U,62804,999,519,0,.132E-5,0
SPAINSAT NG I,2025-021A,2026-06-08T22:04:35.858208,1.00270703,.00003432,0.0139,334.5310,203.9804,78.9580,0,U,62852,999,390,0,.168E-5,0
QZS-6 (MICHIBIKI-6),2025-023A,2026-06-09T12:03:26.125344,1.00273308,.0001906,0.0334,56.4528,29.6770,83.1155,0,U,62876,999,487,0,-.217E-5,0
ZHONGXING-10R,2025-036A,2026-06-09T12:09:10.573632,1.00268977,.00033313,0.0411,250.0463,254.0432,46.6097,0,U,63075,999,488,0,-.335E-5,0
TJS-15,2025-045A,2026-06-09T17:07:37.136064,1.00274743,.0004854,0.2818,85.3656,298.4036,225.5785,0,U,63157,999,468,0,-.248E-5,0
TIANLIAN 2-04,2025-062A,2026-06-08T18:53:44.074752,1.00270193,.00314877,4.3975,274.5597,10.5183,335.5801,0,U,63361,999,451,0,-.12E-5,0
TJS-16,2025-064A,2026-06-09T15:48:44.238240,1.00271840,.0003519,1.0777,81.4975,291.2674,283.0571,0,U,63397,999,431,0,-.88E-6,0
TJS-17,2025-073A,2026-06-09T15:49:51.631104,1.00272079,.000227,1.0435,82.7569,298.7781,278.4847,0,U,63524,999,421,0,-.52E-6,0
TIANLIAN 2-05,2025-084A,2026-06-09T15:08:47.834880,1.00270961,.00033449,4.4716,279.9203,146.0128,79.6691,0,U,63662,999,430,0,.141E-5,0
TJS-19,2025-097A,2026-06-09T17:25:54.264864,1.00268609,.0002139,3.2998,317.3056,237.1536,106.3772,0,U,63924,999,406,0,-.262E-5,0
CHINASAT 3B,2025-106A,2026-06-08T14:43:38.635104,1.00271887,.00028587,0.0397,142.9884,332.3609,169.8987,0,U,64062,999,397,0,-.28E-6,0
SXM-10,2025-122A,2026-06-09T11:13:42.225312,1.00269911,.00017409,0.0176,17.8116,350.4672,301.8160,0,U,64290,999,360,0,0,0
COSMOS 2589,2025-131A,2026-06-09T18:07:19.382016,1.00271139,.0001216,0.0483,76.4674,75.0725,116.3977,0,U,64467,999,348,0,-.274E-5,0
CHINASAT 9C,2025-132A,2026-06-09T12:03:56.076768,1.00271817,.00027495,0.0236,263.4031,174.8853,92.7909,0,U,64470,999,407,0,-.23E-5,0
MTG-S1,2025-143A,2026-06-09T08:11:16.287936,1.00271609,.0001016,0.6103,337.1481,26.2649,13.6462,0,U,64723,999,334,0,-.15E-6,0
DROR 1,2025-148A,2026-06-09T08:11:08.799648,1.00271646,.00027885,0.0117,17.2717,13.1552,346.0708,0,U,64784,999,321,0,-.17E-6,0
SHIYAN-29,2025-196A,2026-06-09T01:48:31.441824,1.00256520,.00109724,28.8121,18.6391,171.7452,188.2752,0,U,65486,999,279,0,-.259E-5,0
NUSANTARA LIMA (NUSANTARA 5),2025-205A,2026-06-08T19:03:10.615104,1.00270756,.00004376,0.0451,143.7047,352.7801,159.3428,0,U,65588,999,263,0,-.341E-5,0
TJS-20,2025-238A,2026-06-09T11:55:26.891328,1.00272963,.00046832,5.4878,299.5799,158.2357,41.3087,0,U,66142,999,225,0,.38E-6,0
CMS-03 (GSAT-7R),2025-249B,2026-06-09T11:58:41.579040,1.00271197,.00017326,0.0221,263.2751,172.5836,75.6859,0,U,66311,999,227,0,-.6E-6,0
VIASAT-3 F2,2025-261A,2026-06-09T11:15:01.913760,1.00272085,.00000893,0.0309,150.8304,333.9947,222.7865,0,U,66454,999,271,0,-.216E-5,0
SHIJIAN-28 (SJ-28),2025-277A,2026-06-09T07:02:55.820832,1.00267481,.000056,4.5599,272.2602,352.2237,215.7848,0,U,66549,999,207,0,-.344E-5,0
TJS-22,2025-290A,2026-06-08T21:32:39.500160,1.00272251,.00019616,1.5481,286.4716,332.3370,28.0822,0,U,66990,999,194,0,.9E-7,0
TJS-23,2025-306A,2026-06-08T15:00:30.400704,1.00273291,.00051622,5.6069,297.5352,166.0260,194.0597,0,U,67226,999,180,0,.29E-6,0
FENGYUN 4C,2025-312A,2026-06-09T13:58:14.356704,1.00271379,.00005229,0.0286,162.3541,17.4898,60.6752,0,U,67246,999,170,0,-.306E-5,0
SHIJIAN-29A (SJ-29A),2025-315A,2026-06-09T17:57:23.639328,1.00269736,.0003215,3.3777,95.2963,22.7089,122.6970,0,U,67302,999,154,0,-.5E-6,0
